HIMAWARI-8              
1 40267U 14060A   24162.67080374 -.00000276  00000+0  00000+0 0  9994
2 40267   0.0624 122.9200 0000753 331.2588 187.4809  1.00270732 35371
